[{"OBJECT_NAME":"STARLINK-32339","OBJECT_ID":"2024-191V","EPOCH":"2026-03-09T06:02:39.751008","MEAN_MOTION":15.27579965,"ECCENTRICITY":9.418e-5,"INCLINATION":43.0042,"RA_OF_ASC_NODE":156.6133,"ARG_OF_PERICENTER":246.683,"MEAN_ANOMALY":113.3923,"EPHEMERIS_TYPE":0,"CLASSIFICATION_TYPE":"U","NORAD_CAT_ID":61640,"ELEMENT_SET_NO":999,"REV_AT_EPOCH":7746,"BSTAR":-5.6405284e-5,"MEAN_MOTION_DOT":-1.814e-5,"MEAN_MOTION_DDOT":0},{"OBJECT_NAME":"FLOCK 4G-36","OBJECT_ID":"2025-009BU","EPOCH":"2026-03-09T16:58:27.533568","MEAN_MOTION":15.27209548,"ECCENTRICITY":0.00034736,"INCLINATION":97.4053,"RA_OF_ASC_NODE":151.0513,"ARG_OF_PERICENTER":324.2456,"MEAN_ANOMALY":35.855,"EPHEMERIS_TYPE":0,"CLASSIFICATION_TYPE":"U","NORAD_CAT_ID":62675,"ELEMENT_SET_NO":999,"REV_AT_EPOCH":6370,"BSTAR":0.00051121743,"MEAN_MOTION_DOT":0.00013573,"MEAN_MOTION_DDOT":0}]
